[{"OBJECT_NAME":"STARLINK-1453","OBJECT_ID":"2020-035P","EPOCH":"2026-03-10T00:00:02.999808","MEAN_MOTION":15.52623231,"ECCENTRICITY":0.00068668,"INCLINATION":53.0485,"RA_OF_ASC_NODE":11.8339,"ARG_OF_PERICENTER":53.8237,"MEAN_ANOMALY":148.2661,"EPHEMERIS_TYPE":0,"CLASSIFICATION_TYPE":"U","NORAD_CAT_ID":45670,"ELEMENT_SET_NO":999,"REV_AT_EPOCH":591,"BSTAR":0.0014629927,"MEAN_MOTION_DOT":0.00092259,"MEAN_MOTION_DDOT":0},{"OBJECT_NAME":"MESAT1","OBJECT_ID":"2024-125G","EPOCH":"2026-03-09T13:42:49.415328","MEAN_MOTION":15.53588194,"ECCENTRICITY":0.0011362,"INCLINATION":97.2457,"RA_OF_ASC_NODE":284.4146,"ARG_OF_PERICENTER":222.17,"MEAN_ANOMALY":137.8681,"EPHEMERIS_TYPE":0,"CLASSIFICATION_TYPE":"U","NORAD_CAT_ID":60209,"ELEMENT_SET_NO":999,"REV_AT_EPOCH":9405,"BSTAR":0.00067574,"MEAN_MOTION_DOT":0.00043222,"MEAN_MOTION_DDOT":0}]
